{"type": "FeatureCollection", "features": [ {"type": "Feature", "properties": {"norad_id": 66629, "name": "STARLINK-35956", "group": "last-30-days", "lat": -34.65180922272973, "lon": 132.04583896386146, "alt_km": 422.7482769663575, "timestamp": "2025-12-17T17:50:17.973136+00:00", "meta": {"OBJECT_NAME": "STARLINK-35956", "OBJECT_ID": "2025-271N", "EPOCH": "2025-12-16T21:54:27.071712", "MEAN_MOTION": 15.49330698, "ECCENTRICITY": 6.346e-05, "INCLINATION": 53.1587, "RA_OF_ASC_NODE": 167.2314, "ARG_OF_PERICENTER": 73.5778, "MEAN_ANOMALY": 286.5301, "EPHEMERIS_TYPE": 0, "CLASSIFICATION_TYPE": "U", "NORAD_CAT_ID": 66629, "ELEMENT_SET_NO": 999, "REV_AT_EPOCH": 485, "BSTAR": 0.0010048732, "MEAN_MOTION_DOT": 0.00055882, "MEAN_MOTION_DDOT": 0}, "tle": {"line1": "1 66629U 25271N   25350.91281333  .00055882  00000+0  10049-2 0  9994", "line2": "2 66629  53.1587 167.2314 0000634  73.5778 286.5301 15.49330698  4854"}}, "geometry": {"type": "Point", "coordinates": [132.04583896386146, -34.65180922272973]}}, {"type": "Feature", "properties": {"norad_id": 66630, "name": "STARLINK-35949", "group": "last-30-days", "lat": -33.37874508500969, "lon": 133.6529155388688, "alt_km": 422.94797699253377, "timestamp": "2025-12-17T17:50:17.973148+00:00", "meta": {"OBJECT_NAME": "STARLINK-35949", "OBJECT_ID": "2025-271P", "EPOCH": "2025-12-17T00:59:44.534688", "MEAN_MOTION": 15.49330157, "ECCENTRICITY": 0.00012198, "INCLINATION": 53.1594, "RA_OF_ASC_NODE": 166.611, "ARG_OF_PERICENTER": 75.6922, "MEAN_ANOMALY": 284.4222, "EPHEMERIS_TYPE": 0, "CLASSIFICATION_TYPE": "U", "NORAD_CAT_ID": 66630, "ELEMENT_SET_NO": 999, "REV_AT_EPOCH": 487, "BSTAR": 0.00089752477, "MEAN_MOTION_DOT": 0.00049825, "MEAN_MOTION_DDOT": 0}, "tle": {"line1": "1 66630U 25271P   25351.04148767  .00049825  00000+0  89752-3 0  9992", "line2": "2 66630  53.1594 166.6110 0001219  75.6922 284.4222 15.49330157  4876"}}, "geometry": {"type": "Point", "coordinates": [133.6529155388688, -33.37874508500969]}}, {"type": "Feature", "properties": {"norad_id": 66631, "name": "STARLINK-35965", "group": "last-30-days", "lat": -32.01292661629233, "lon": 135.29962778949732, "alt_km": 422.45473436924294, "timestamp": "2025-12-17T17:50:17.973159+00:00", "meta": {"OBJECT_NAME": "STARLINK-35965", "OBJECT_ID": "2025-271Q", "EPOCH": "2025-12-17T00:59:14.647200", "MEAN_MOTION": 15.49332723, "ECCENTRICITY": 5.341e-05, "INCLINATION": 53.1591, "RA_OF_ASC_NODE": 166.6099, "ARG_OF_PERICENTER": 55.0729, "MEAN_ANOMALY": 305.0331, "EPHEMERIS_TYPE": 0, "CLASSIFICATION_TYPE": "U", "NORAD_CAT_ID": 66631, "ELEMENT_SET_NO": 999, "REV_AT_EPOCH": 487, "BSTAR": 0.0010487416, "MEAN_MOTION_DOT": 0.00058364, "MEAN_MOTION_DDOT": 0}, "tle": {"line1": "1 66631U 25271Q   25351.04114175  .00058364  00000+0  10487-2 0  9995", "line2": "2 66631  53.1591 166.6099 0000534  55.0729 305.0331 15.49332723  4878"}}, "geometry": {"type": "Point", "coordinates": [135.29962778949732, -32.01292661629233]}}, {"type": "Feature", "properties": {"norad_id": 66632, "name": "STARLINK-35973", "group": "last-30-days", "lat": -29.90322868238116, "lon": 8.993237590259971, "alt_km": 451.3941639060704, "timestamp": "2025-12-17T17:50:17.973171+00:00", "meta": {"OBJECT_NAME": "STARLINK-35973", "OBJECT_ID": "2025-271R", "EPOCH": "2025-12-17T08:00:04.999680", "MEAN_MOTION": 15.39583165, "ECCENTRICITY": 0.00013257, "INCLINATION": 53.1583, "RA_OF_ASC_NODE": 165.3821, "ARG_OF_PERICENTER": 102.5646, "MEAN_ANOMALY": 2.8435, "EPHEMERIS_TYPE": 0, "CLASSIFICATION_TYPE": "U", "NORAD_CAT_ID": 66632, "ELEMENT_SET_NO": 999, "REV_AT_EPOCH": 492, "BSTAR": 0.0016181501, "MEAN_MOTION_DOT": 0.00064798, "MEAN_MOTION_DDOT": 0}, "tle": {"line1": "1 66632U 25271R   25351.33339120  .00064798  00000+0  16182-2 0  9993", "line2": "2 66632  53.1583 165.3821 0001325 102.5646   2.8435 15.39583165  4924"}}, "geometry": {"type": "Point", "coordinates": [8.993237590259971, -29.90322868238116]}}, {"type": "Feature", "properties": {"norad_id": 66633, "name": "STARLINK-35948", "group": "last-30-days", "lat": -31.212699707945937, "lon": 10.465390133794315, "alt_km": 451.45398913294684, "timestamp": "2025-12-17T17:50:17.973181+00:00", "meta": {"OBJECT_NAME": "STARLINK-35948", "OBJECT_ID": "2025-271S", "EPOCH": "2025-12-17T08:00:04.999680", "MEAN_MOTION": 15.39580567, "ECCENTRICITY": 9.91e-05, "INCLINATION": 53.1583, "RA_OF_ASC_NODE": 165.3774, "ARG_OF_PERICENTER": 98.0767, "MEAN_ANOMALY": 9.1671, "EPHEMERIS_TYPE": 0, "CLASSIFICATION_TYPE": "U", "NORAD_CAT_ID": 66633, "ELEMENT_SET_NO": 999, "REV_AT_EPOCH": 498, "BSTAR": 0.0015964591, "MEAN_MOTION_DOT": 0.00063911, "MEAN_MOTION_DDOT": 0}, "tle": {"line1": "1 66633U 25271S   25351.33339120  .00063911  00000+0  15965-2 0  9998", "line2": "2 66633  53.1583 165.3774 0000991  98.0767   9.1671 15.39580567  4984"}}, "geometry": {"type": "Point", "coordinates": [10.465390133794315, -31.212699707945937]}}, {"type": "Feature", "properties": {"norad_id": 66634, "name": "STARLINK-35967", "group": "last-30-days", "lat": -46.96777594917859, "lon": 36.819036230313095, "alt_km": 452.3173698818464, "timestamp": "2025-12-17T17:50:17.973191+00:00", "meta": {"OBJECT_NAME": "STARLINK-35967", "OBJECT_ID": "2025-271T", "EPOCH": "2025-12-17T08:00:04.999680", "MEAN_MOTION": 15.39581608, "ECCENTRICITY": 6.993e-05, "INCLINATION": 53.1593, "RA_OF_ASC_NODE": 165.325, "ARG_OF_PERICENTER": 64.9727, "MEAN_ANOMALY": 67.9542, "EPHEMERIS_TYPE": 0, "CLASSIFICATION_TYPE": "U", "NORAD_CAT_ID": 66634, "ELEMENT_SET_NO": 999, "REV_AT_EPOCH": 491, "BSTAR": 0.0016337357, "MEAN_MOTION_DOT": 0.00065428, "MEAN_MOTION_DDOT": 0}, "tle": {"line1": "1 66634U 25271T   25351.33339120  .00065428  00000+0  16337-2 0  9998", "line2": "2 66634  53.1593 165.3250 0000699  64.9727  67.9542 15.39581608  4917"}}, "geometry": {"type": "Point", "coordinates": [36.819036230313095, -46.96777594917859]}}, {"type": "Feature", "properties": {"norad_id": 66635, "name": "STARLINK-35955", "group": "last-30-days", "lat": -45.38971554356371, "lon": 113.82764124730376, "alt_km": 449.17496014148674, "timestamp": "2025-12-17T17:50:17.973203+00:00", "meta": {"OBJECT_NAME": "STARLINK-35955", "OBJECT_ID": "2025-271U", "EPOCH": "2025-12-17T08:00:04.999680", "MEAN_MOTION": 15.43027161, "ECCENTRICITY": 0.00013771, "INCLINATION": 53.1594, "RA_OF_ASC_NODE": 165.2305, "ARG_OF_PERICENTER": 101.5108, "MEAN_ANOMALY": 79.2785, "EPHEMERIS_TYPE": 0, "CLASSIFICATION_TYPE": "U", "NORAD_CAT_ID": 66635, "ELEMENT_SET_NO": 999, "REV_AT_EPOCH": 498, "BSTAR": -0.063053387, "MEAN_MOTION_DOT": -0.02499389, "MEAN_MOTION_DDOT": 0}, "tle": {"line1": "1 66635U 25271U   25351.33339120 -.02499389  00000+0 -63053-1 0  9996", "line2": "2 66635  53.1594 165.2305 0001377 101.5108  79.2785 15.43027161  4980"}}, "geometry": {"type": "Point", "coordinates": [113.82764124730376, -45.38971554356371]}}, {"type": "Feature", "properties": {"norad_id": 66636, "name": "STARLINK-35968", "group": "last-30-days", "lat": -53.10589253124856, "lon": 76.18714552339044, "alt_km": 452.6273883724607, "timestamp": "2025-12-17T17:50:17.973214+00:00", "meta": {"OBJECT_NAME": "STARLINK-35968", "OBJECT_ID": "2025-271V", "EPOCH": "2025-12-17T08:00:04.999680", "MEAN_MOTION": 15.39532729, "ECCENTRICITY": 8.439e-05, "INCLINATION": 53.1593, "RA_OF_ASC_NODE": 165.2741, "ARG_OF_PERICENTER": 118.4882, "MEAN_ANOMALY": 40.2446, "EPHEMERIS_TYPE": 0, "CLASSIFICATION_TYPE": "U", "NORAD_CAT_ID": 66636, "ELEMENT_SET_NO": 999, "REV_AT_EPOCH": 498, "BSTAR": 0.0020236496, "MEAN_MOTION_DOT": 0.00081177, "MEAN_MOTION_DDOT": 0}, "tle": {"line1": "1 66636U 25271V   25351.33339120  .00081177  00000+0  20236-2 0  9992", "line2": "2 66636  53.1593 165.2741 0000843 118.4882  40.2446 15.39532729  4985"}}, "geometry": {"type": "Point", "coordinates": [76.18714552339044, -53.10589253124856]}}, {"type": "Feature", "properties": {"norad_id": 66637, "name": "STARLINK-35953", "group": "last-30-days", "lat": -33.144501427199664, "lon": 133.9392487818216, "alt_km": 439.66127298169704, "timestamp": "2025-12-17T17:50:17.973224+00:00", "meta": {"OBJECT_NAME": "STARLINK-35953", "OBJECT_ID": "2025-271W", "EPOCH": "2025-12-17T08:00:04.999680", "MEAN_MOTION": 15.45433547, "ECCENTRICITY": 0.00012336, "INCLINATION": 53.1591, "RA_OF_ASC_NODE": 165.1986, "ARG_OF_PERICENTER": 75.1407, "MEAN_ANOMALY": 121.5094, "EPHEMERIS_TYPE": 0, "CLASSIFICATION_TYPE": "U", "NORAD_CAT_ID": 66637, "ELEMENT_SET_NO": 999, "REV_AT_EPOCH": 498, "BSTAR": -0.04544773, "MEAN_MOTION_DOT": -0.0197429, "MEAN_MOTION_DDOT": 0}, "tle": {"line1": "1 66637U 25271W   25351.33339120 -.01974290  00000+0 -45448-1 0  9994", "line2": "2 66637  53.1591 165.1986 0001233  75.1407 121.5094 15.45433547  4987"}}, "geometry": {"type": "Point", "coordinates": [133.9392487818216, -33.144501427199664]}}, {"type": "Feature", "properties": {"norad_id": 66638, "name": "STARLINK-35972", "group": "last-30-days", "lat": -22.168652660220157, "lon": 145.4358190767888, "alt_km": 421.66667771223183, "timestamp": "2025-12-17T17:50:17.973234+00:00", "meta": {"OBJECT_NAME": "STARLINK-35972", "OBJECT_ID": "2025-271X", "EPOCH": "2025-12-17T02:28:40.636704", "MEAN_MOTION": 15.49327581, "ECCENTRICITY": 8.287e-05, "INCLINATION": 53.1592, "RA_OF_ASC_NODE": 166.2846, "ARG_OF_PERICENTER": 52.4442, "MEAN_ANOMALY": 307.6643, "EPHEMERIS_TYPE": 0, "CLASSIFICATION_TYPE": "U", "NORAD_CAT_ID": 66638, "ELEMENT_SET_NO": 999, "REV_AT_EPOCH": 488, "BSTAR": 0.0010577304, "MEAN_MOTION_DOT": 0.00058861, "MEAN_MOTION_DDOT": 0}, "tle": {"line1": "1 66638U 25271X   25351.10324811  .00058861  00000+0  10577-2 0  9991", "line2": "2 66638  53.1592 166.2846 0000828  52.4442 307.6643 15.49327581  4882"}}, "geometry": {"type": "Point", "coordinates": [145.4358190767888, -22.168652660220157]}}]}